NORAD_CAT_ID,OBJECT_NAME,OBJECT_TYPE,EPOCH,MEAN_MOTION,ECCENTRICITY,INCLINATION,RA_OF_ASC_NODE,ARG_OF_PERICENTER,MEAN_ANOMALY,BSTAR,MEAN_MOTION_DOT,MEAN_MOTION_DDOT,TLE_LINE0,TLE_LINE1,TLE_LINE2,SEMIMAJOR_AXIS,PERIOD,APOGEE,PERIGEE,DECAYED
52347.0,STARLINK-3826,PAYLOAD,2024-05-08 20:00:12,15.08841235,0.0001102,53.2169,326.2313,92.8334,267.2785,3.853e-05,3.25e-06,0.0,0 STARLINK-3826,1 52347U 22045S   24129.83348249  .00000325  00000-0  38530-4 0  9996,2 52347  53.2169 326.2313 0001102  92.8334 267.2785 15.08841235114653,6917.877,95.437,540.504,538.979,0.0
52347.0,STARLINK-3826,PAYLOAD,2024-05-09 05:32:31,15.08852553,0.0001127,53.2175,324.4468,95.2156,264.8965,0.00024117,3.554e-05,0.0,0 STARLINK-3826,1 52347U 22045S   24130.23091694  .00003554  00000-0  24117-3 0  9993,2 52347  53.2175 324.4468 0001127  95.2156 264.8965 15.08852553114712,6917.842,95.437,540.487,538.927,0.0
52347.0,STARLINK-3826,PAYLOAD,2024-05-09 18:15:37,15.08837029,0.0001328,53.2175,322.069,109.9776,250.1359,0.00022154,3.239e-05,0.0,0 STARLINK-3826,1 52347U 22045S   24130.76084732  .00003239  00000-0  22154-3 0  9995,2 52347  53.2175 322.0690 0001328 109.9776 250.1359 15.08837029114791,6917.889,95.438,540.673,538.836,0.0
52347.0,STARLINK-3826,PAYLOAD,2024-05-10 19:41:47,15.08848476,0.0001125,53.2178,317.31,97.014,263.098,0.00021206,3.089e-05,0.0,0 STARLINK-3826,1 52347U 22045S   24131.82068316  .00003089  00000-0  21206-3 0  9993,2 52347  53.2178 317.3100 0001125  97.0140 263.0980 15.08848476114953,6917.854,95.437,540.498,538.941,0.0
52347.0,STARLINK-3826,PAYLOAD,2024-05-11 19:32:35,15.08755901,0.0001142,53.2172,312.8488,80.9311,279.181,-0.0028373,-0.00045057,0.0,0 STARLINK-3826,1 52347U 22045S   24132.81429622 -.00045057  00000-0 -28373-2 0  9998,2 52347  53.2172 312.8488 0001142  80.9311 279.1810 15.08755901115104,6918.137,95.443,540.793,539.212,0.0
52347.0,STARLINK-3826,PAYLOAD,2024-05-12 11:26:29,15.08732478,0.0001057,53.2172,309.875,75.0514,285.0595,-0.0019886,-0.00031704,0.0,0 STARLINK-3826,1 52347U 22045S   24133.47673433 -.00031704  00000-0 -19886-2 0  9995,2 52347  53.2172 309.8750 0001057  75.0514 285.0595 15.08732478115208,6918.209,95.444,540.805,539.343,0.0
52347.0,STARLINK-3826,PAYLOAD,2024-05-12 19:23:26,15.08796017,0.0001607,53.2176,308.3852,93.5164,266.6012,0.0022048,0.00034933,0.0,0 STARLINK-3826,1 52347U 22045S   24133.80794630  .00034933  00000-0  22048-2 0  9994,2 52347  53.2176 308.3852 0001607  93.5164 266.6012 15.08796017115259,6918.015,95.44,540.992,538.768,0.0
52347.0,STARLINK-3826,PAYLOAD,2024-05-13 11:17:17,15.0884772,0.0001472,53.2171,305.4127,93.4643,266.6518,0.0012129,0.00019072,0.0,0 STARLINK-3826,1 52347U 22045S   24134.47034570  .00019072  00000-0  12129-2 0  9994,2 52347  53.2171 305.4127 0001472  93.4643 266.6518 15.08847720115358,6917.857,95.437,540.74,538.703,0.0
52347.0,STARLINK-3826,PAYLOAD,2024-05-13 17:38:49,15.08873486,0.0001487,53.2163,304.2247,89.6324,270.4839,0.0017951,0.00028423,0.0,0 STARLINK-3826,1 52347U 22045S   24134.73529930  .00028423  00000-0  17951-2 0  9990,2 52347  53.2163 304.2247 0001487  89.6324 270.4839 15.08873486115399,6917.778,95.435,540.672,538.614,0.0
52347.0,STARLINK-3826,PAYLOAD,2024-05-14 11:08:02,15.08895657,0.0001515,53.2164,300.9546,85.1311,274.9854,0.0011475,0.00018049,0.0,0 STARLINK-3826,1 52347U 22045S   24135.46391806  .00018049  00000-0  11475-2 0  9998,2 52347  53.2164 300.9546 0001515  85.1311 274.9854 15.08895657115507,6917.71,95.434,540.623,538.527,0.0
52347.0,STARLINK-3826,PAYLOAD,2024-05-14 17:29:34,15.0890453,0.0001516,53.2166,299.7651,84.1218,275.9947,0.0013847,0.00021857,0.0,0 STARLINK-3826,1 52347U 22045S   24135.72886798  .00021857  00000-0  13847-2 0  9992,2 52347  53.2166 299.7651 0001516  84.1218 275.9947 15.08904530115546,6917.683,95.433,540.597,538.499,0.0
52347.0,STARLINK-3826,PAYLOAD,2024-05-15 14:09:33,15.08881268,9.2e-05,53.2155,295.8977,65.978,294.1308,0.0011806,0.00018572,0.0,0 STARLINK-3826,1 52347U 22045S   24136.58997232  .00018572  00000-0  11806-2 0  9996,2 52347  53.2155 295.8977 0000920  65.9780 294.1308 15.08881268115671,6917.754,95.435,540.256,538.983,0.0
52347.0,STARLINK-3826,PAYLOAD,2024-05-15 20:31:05,15.08858649,0.0001449,53.217,294.7081,109.4776,250.6373,1.9317e-05,2e-07,0.0,0 STARLINK-3826,1 52347U 22045S   24136.85492773  .00000020  00000-0  19317-4 0  9992,2 52347  53.2170 294.7081 0001449 109.4776 250.6373 15.08858649115719,6917.823,95.436,540.691,538.686,0.0
52347.0,STARLINK-3826,PAYLOAD,2024-05-16 10:49:34,15.08845541,0.000159,53.2172,292.0303,107.839,252.2775,0.00053993,8.317e-05,0.0,0 STARLINK-3826,1 52347U 22045S   24137.45109107  .00008317  00000-0  53993-3 0  9999,2 52347  53.2172 292.0303 0001590 107.8390 252.2775 15.08845541115801,6917.863,95.437,540.828,538.629,0.0
52347.0,STARLINK-3826,PAYLOAD,2024-05-16 17:11:06,15.08858492,0.0001747,53.2177,290.842,83.9684,276.1508,0.00061792,9.565e-05,0.0,0 STARLINK-3826,1 52347U 22045S   24137.71604686  .00009565  00000-0  61792-3 0  9992,2 52347  53.2177 290.8420 0001747  83.9684 276.1508 15.08858492115848,6917.824,95.436,540.897,538.48,0.0
52347.0,STARLINK-3826,PAYLOAD,2024-05-17 02:43:24,15.08869891,0.0002643,53.2184,289.0591,90.8066,269.3229,0.00075243,0.00011717,0.0,0 STARLINK-3826,1 52347U 22045S   24138.11348196  .00011717  00000-0  75243-3 0  9996,2 52347  53.2184 289.0591 0002643  90.8066 269.3229 15.08869891115908,6917.789,95.436,541.482,537.826,0.0
52347.0,STARLINK-3826,PAYLOAD,2024-05-17 18:37:17,15.08803289,0.0001761,53.217,286.0839,87.1274,272.9919,-0.00078233,-0.00012705,0.0,0 STARLINK-3826,1 52347U 22045S   24138.77590218 -.00012705  00000-0 -78233-3 0  9994,2 52347  53.2170 286.0839 0001761  87.1274 272.9919 15.08803289116002,6917.993,95.44,541.076,538.639,0.0
52347.0,STARLINK-3826,PAYLOAD,2024-05-18 02:34:13,15.0883494,0.0001099,53.2164,284.5975,94.1661,265.9457,0.00040209,6.116e-05,0.0,0 STARLINK-3826,1 52347U 22045S   24139.10709938  .00006116  00000-0  40209-3 0  9992,2 52347  53.2164 284.5975 0001099  94.1661 265.9457 15.08834940116053,6917.896,95.438,540.521,539.001,0.0
52347.0,STARLINK-3826,PAYLOAD,2024-05-18 13:41:55,15.0885027,0.0002013,53.2131,282.5177,80.2801,279.8418,0.00084716,0.00013224,0.0,0 STARLINK-3826,1 52347U 22045S   24139.57077863  .00013224  00000-0  84716-3 0  9997,2 52347  53.2131 282.5177 0002013  80.2801 279.8418 15.08850270116121,6917.849,95.437,541.107,538.321,0.0
52347.0,STARLINK-3826,PAYLOAD,2024-05-18 20:03:26,15.08883938,0.0001681,53.2159,281.3253,108.7126,251.4048,0.001295,0.00020407,0.0,0 STARLINK-3826,1 52347U 22045S   24139.83572894  .00020407  00000-0  12950-2 0  9991,2 52347  53.2159 281.3253 0001681 108.7126 251.4048 15.08883938116165,6917.746,95.435,540.774,538.448,0.0
52347.0,STARLINK-3826,PAYLOAD,2024-05-19 13:32:42,15.08818426,0.0001595,53.2144,278.0549,107.7147,252.4019,-0.00091941,-0.00014882,0.0,0 STARLINK-3826,1 52347U 22045S   24140.56437772 -.00014882  00000-0 -91941-3 0  9998,2 52347  53.2144 278.0549 0001595 107.7147 252.4019 15.08818426116277,6917.946,95.439,540.915,538.708,0.0
52347.0,STARLINK-3826,PAYLOAD,2024-05-19 18:18:51,15.08831272,0.0001579,53.215,277.1658,121.3121,238.8025,-0.00030453,-5.13e-05,0.0,0 STARLINK-3826,1 52347U 22045S   24140.76309580 -.00005130  00000-0 -30453-3 0  9992,2 52347  53.2150 277.1658 0001579 121.3121 238.8025 15.08831272116304,6917.907,95.438,540.864,538.68,0.0
52347.0,STARLINK-3826,PAYLOAD,2024-05-20 14:58:52,15.08850617,0.000172,53.2169,273.2967,114.6967,245.4204,0.0014497,0.00022866,0.0,0 STARLINK-3826,1 52347U 22045S   24141.62422365  .00022866  00000-0  14497-2 0  9997,2 52347  53.2169 273.2967 0001720 114.6967 245.4204 15.08850617116436,6917.848,95.437,540.903,538.523,0.0
52347.0,STARLINK-3826,PAYLOAD,2024-05-20 18:09:39,15.08853929,0.0001494,53.2162,272.7029,114.6742,245.4406,0.001315,0.0002071,0.0,0 STARLINK-3826,1 52347U 22045S   24141.75670200  .00020710  00000-0  13150-2 0  9995,2 52347  53.2162 272.7029 0001494 114.6742 245.4406 15.08853929116456,6917.838,95.437,540.736,538.669,0.0
52347.0,STARLINK-3826,PAYLOAD,2024-05-21 13:14:16,15.08845943,0.0001666,53.2172,269.1296,99.1628,260.9553,0.00032258,4.85e-05,0.0,0 STARLINK-3826,1 52347U 22045S   24142.55158232  .00004850  00000-0  32258-3 0  9998,2 52347  53.2172 269.1296 0001666  99.1628 260.9553 15.08845943116579,6917.862,95.437,540.88,538.575,0.0
52347.0,STARLINK-3826,PAYLOAD,2024-05-21 14:49:39,15.08843059,0.0001529,53.217,268.8333,102.0421,258.0743,0.0001748,2.495e-05,0.0,0 STARLINK-3826,1 52347U 22045S   24142.61782238  .00002495  00000-0  17480-3 0  9997,2 52347  53.2170 268.8333 0001529 102.0421 258.0743 15.08843059116584,6917.871,95.437,540.794,538.678,0.0
52347.0,STARLINK-3826,PAYLOAD,2024-05-22 11:29:40,15.08840767,0.0001486,53.2172,264.9679,101.8388,258.277,3.9437e-05,3.4e-06,0.0,0 STARLINK-3826,1 52347U 22045S   24143.47894353  .00000340  00000-0  39437-4 0  9998,2 52347  53.2172 264.9679 0001486 101.8388 258.2770 15.08840767116717,6917.878,95.438,540.771,538.715,0.0
52347.0,STARLINK-3826,PAYLOAD,2024-05-23 00:12:45,15.08855799,0.0001515,53.2187,262.5909,88.865,271.2515,0.0002006,2.907e-05,0.0,0 STARLINK-3826,1 52347U 22045S   24144.00885527  .00002907  00000-0  20060-3 0  9993,2 52347  53.2187 262.5909 0001515  88.8650 271.2515 15.08855799116793,6917.832,95.437,540.745,538.649,0.0
52347.0,STARLINK-3826,PAYLOAD,2024-05-23 12:55:51,15.08830296,0.0001553,53.2176,260.213,98.4952,261.6216,-2.9489e-05,-7.57e-06,0.0,0 STARLINK-3826,1 52347U 22045S   24144.53878825 -.00000757  00000-0 -29489-4 0  9992,2 52347  53.2176 260.2130 0001553  98.4952 261.6216 15.08830296116871,6917.91,95.438,540.849,538.701,0.0
52347.0,STARLINK-3826,PAYLOAD,2024-05-23 14:31:14,15.08833121,0.0001642,53.218,259.915,103.226,256.8915,2.6574e-05,1.35e-06,0.0,0 STARLINK-3826,1 52347U 22045S   24144.60502920  .00000135  00000-0  26574-4 0  9990,2 52347  53.2180 259.9150 0001642 103.2260 256.8915 15.08833121116882,6917.901,95.438,540.902,538.63,0.0
